{
  "links" : {
    "next" : "https://api.nasa.gov/neo/rest/v1/feed?start_date=2014-09-09&end_date=2014-09-09&detailed=true&api_key=t0TVs3DtDT2H8Oy2Zy8m2eVrNsAVKAexjcZXUckd",
    "prev" : "https://api.nasa.gov/neo/rest/v1/feed?start_date=2014-09-07&end_date=2014-09-07&detailed=true&api_key=t0TVs3DtDT2H8Oy2Zy8m2eVrNsAVKAexjcZXUckd",
    "self" : "https://api.nasa.gov/neo/rest/v1/feed?start_date=2014-09-08&end_date=2014-09-08&detailed=true&api_key=t0TVs3DtDT2H8Oy2Zy8m2eVrNsAVKAexjcZXUckd"
  },
  "element_count" : 8,
  "near_earth_objects" : {
    "2014-09-08" : [ {
      "links" : {
        "self" : "https://api.nasa.gov/neo/rest/v1/neo/3666542?api_key=t0TVs3DtDT2H8Oy2Zy8m2eVrNsAVKAexjcZXUckd"
      },
      "neo_reference_id" : "3666542",
      "name" : "(2014 FW32)",
      "nasa_jpl_url" : "http://ssd.jpl.nasa.gov/sbdb.cgi?sstr=3666542",
      "absolute_magnitude_h" : 27.0,
      "estimated_diameter" : {
        "kilometers" : {
          "estimated_diameter_min" : 0.0105816886,
          "estimated_diameter_max" : 0.023661375
        },
        "meters" : {
          "estimated_diameter_min" : 10.5816885933,
          "estimated_diameter_max" : 23.6613750114
        },
        "miles" : {
          "estimated_diameter_min" : 0.0065751544,
          "estimated_diameter_max" : 0.0147024923
        },
        "feet" : {
          "estimated_diameter_min" : 34.7168272045,
          "estimated_diameter_max" : 77.6291855923
        }
      },
      "is_potentially_hazardous_asteroid" : false,
      "close_approach_data" : [ {
        "close_approach_date" : "2014-09-08",
        "epoch_date_close_approach" : 1410159600000,
        "relative_velocity" : {
          "kilometers_per_second" : "4.8666764654",
          "kilometers_per_hour" : "17520.0352754462",
          "miles_per_hour" : "10886.2685854571"
        },
        "miss_distance" : {
          "astronomical" : "0.1826279744",
          "lunar" : "71.0422821045",
          "kilometers" : "27320756",
          "miles" : "16976332"
        },
        "orbiting_body" : "Earth"
      } ],
      "orbital_data" : {
        "orbit_id" : "6",
        "orbit_determination_date" : "2017-04-06 08:41:56",
        "orbit_uncertainty" : "7",
        "minimum_orbit_intersection" : ".00821746",
        "jupiter_tisserand_invariant" : "6.424",
        "epoch_osculation" : "2458000.5",
        "eccentricity" : ".1601673687156838",
        "semi_major_axis" : ".9309316010057678",
        "inclination" : "1.306458657831625",
        "ascending_node_longitude" : "138.9612307471585",
        "orbital_period" : "328.0764721385263",
        "perihelion_distance" : ".7818267360183951",
        "perihelion_argument" : "260.3485343284116",
        "aphelion_distance" : "1.08003646599314",
        "perihelion_time" : "2457932.474723712841",
        "mean_anomaly" : "74.64448548763092",
        "mean_motion" : "1.097305142466889",
        "equinox" : "J2000"
      }
    }, {
      "links" : {
        "self" : "https://api.nasa.gov/neo/rest/v1/neo/3680269?api_key=t0TVs3DtDT2H8Oy2Zy8m2eVrNsAVKAexjcZXUckd"
      },
      "neo_reference_id" : "3680269",
      "name" : "(2014 PZ58)",
      "nasa_jpl_url" : "http://ssd.jpl.nasa.gov/sbdb.cgi?sstr=3680269",
      "absolute_magnitude_h" : 23.5,
      "estimated_diameter" : {
        "kilometers" : {
          "estimated_diameter_min" : 0.0530340723,
          "estimated_diameter_max" : 0.1185877909
        },
        "meters" : {
          "estimated_diameter_min" : 53.0340723319,
          "estimated_diameter_max" : 118.5877908577
        },
        "miles" : {
          "estimated_diameter_min" : 0.0329538346,
          "estimated_diameter_max" : 0.0736870142
        },
        "feet" : {
          "estimated_diameter_min" : 173.9963058693,
          "estimated_diameter_max" : 389.0675677576
        }
      },
      "is_potentially_hazardous_asteroid" : false,
      "close_approach_data" : [ {
        "close_approach_date" : "2014-09-08",
        "epoch_date_close_approach" : 1410159600000,
        "relative_velocity" : {
          "kilometers_per_second" : "3.8530096864",
          "kilometers_per_hour" : "13870.8348711965",
          "miles_per_hour" : "8618.7973676054"
        },
        "miss_distance" : {
          "astronomical" : "0.1183130565",
          "lunar" : "46.0237808228",
          "kilometers" : "17699382",
          "miles" : "10997886"
        },
        "orbiting_body" : "Earth"
      } ],
      "orbital_data" : {
        "orbit_id" : "18",
        "orbit_determination_date" : "2017-04-06 08:39:20",
        "orbit_uncertainty" : "4",
        "minimum_orbit_intersection" : ".115717",
        "jupiter_tisserand_invariant" : "4.865",
        "epoch_osculation" : "2458000.5",
        "eccentricity" : ".1794315131020284",
        "semi_major_axis" : "1.343864436099119",
        "inclination" : "6.831657697946377",
        "ascending_node_longitude" : "322.793905571865",
        "orbital_period" : "569.0253548852534",
        "perihelion_distance" : "1.10273280692585",
        "perihelion_argument" : "42.4292603428856",
        "aphelion_distance" : "1.584996065272388",
        "perihelion_time" : "2458066.860811789056",
        "mean_anomaly" : "318.0161199514956",
        "mean_motion" : ".6326607363086583",
        "equinox" : "J2000"
      }
    }, {
      "links" : {
        "self" : "https://api.nasa.gov/neo/rest/v1/neo/3683471?api_key=t0TVs3DtDT2H8Oy2Zy8m2eVrNsAVKAexjcZXUckd"
      },
      "neo_reference_id" : "3683471",
      "name" : "(2014 QV295)",
      "nasa_jpl_url" : "http://ssd.jpl.nasa.gov/sbdb.cgi?sstr=3683471",
      "absolute_magnitude_h" : 24.9,
      "estimated_diameter" : {
        "kilometers" : {
          "estimated_diameter_min" : 0.0278326768,
          "estimated_diameter_max" : 0.0622357573
        },
        "meters" : {
          "estimated_diameter_min" : 27.8326768072,
          "estimated_diameter_max" : 62.2357573367
        },
        "miles" : {
          "estimated_diameter_min" : 0.0172944182,
          "estimated_diameter_max" : 0.0386714948
        },
        "feet" : {
          "estimated_diameter_min" : 91.3145593761,
          "estimated_diameter_max" : 204.1855621004
        }
      },
      "is_potentially_hazardous_asteroid" : false,
      "close_approach_data" : [ {
        "close_approach_date" : "2014-09-08",
        "epoch_date_close_approach" : 1410159600000,
        "relative_velocity" : {
          "kilometers_per_second" : "6.0631773829",
          "kilometers_per_hour" : "21827.438578346",
          "miles_per_hour" : "13562.7214877506"
        },
        "miss_distance" : {
          "astronomical" : "0.0656516037",
          "lunar" : "25.5384731293",
          "kilometers" : "9821340",
          "miles" : "6102698"
        },
        "orbiting_body" : "Earth"
      } ],
      "orbital_data" : {
        "orbit_id" : "14",
        "orbit_determination_date" : "2017-04-06 08:39:09",
        "orbit_uncertainty" : "6",
        "minimum_orbit_intersection" : ".0690275",
        "jupiter_tisserand_invariant" : "3.425",
        "epoch_osculation" : "2458000.5",
        "eccentricity" : ".5241593264265106",
        "semi_major_axis" : "2.259422064302637",
        "inclination" : "1.871551677469226",
        "ascending_node_longitude" : "5.410387238484678",
        "orbital_period" : "1240.493449111554",
        "perihelion_distance" : "1.075124916964571",
        "perihelion_argument" : "342.8545043634103",
        "aphelion_distance" : "3.443719211640704",
        "perihelion_time" : "2458154.299343747051",
        "mean_anomaly" : "315.3663392671739",
        "mean_motion" : ".2902070948120147",
        "equinox" : "J2000"
      }
    } ]
  }
}